{
  "type": "FeatureCollection",
  "features": [
    {
      "type": "Feature",
      "properties": {
        "norad_id": 31217,
        "name": "FENGYUN 1C DEB",
        "group": "fengyun-1c-debris",
        "lat": 26.525360025174713,
        "lon": -15.080072020292059,
        "alt_km": 893.867394437083,
        "timestamp": "2025-12-07T05:38:10.185205+00:00",
        "meta_object_name": "FENGYUN 1C DEB",
        "meta_object_id": "1999-025BKX",
        "meta_epoch": "2025-12-05T17:55:54.808896",
        "meta_mean_motion": 14.1751299,
        "meta_eccentricity": 0.0099341,
        "meta_inclination": 98.6411,
        "meta_ra_of_asc_node": 347.8261,
        "meta_arg_of_pericenter": 180.1028,
        "meta_mean_anomaly": 180.0144,
        "meta_ephemeris_type": 0,
        "meta_classification_type": "U",
        "meta_norad_cat_id": 31217,
        "meta_element_set_no": 999,
        "meta_rev_at_epoch": 96249,
        "meta_bstar": 0.00094089819,
        "meta_mean_motion_dot": 1.962e-05,
        "meta_mean_motion_ddot": 0,
        "tle_line1": "1 31217U 99025BKX 25339.74716214  .00001962  00000+0  94090-3 0  9995",
        "tle_line2": "2 31217  98.6411 347.8261 0099341 180.1028 180.0144 14.17512990962499"
      },
      "geometry": {
        "type": "Point",
        "coordinates": [
          -15.080072020292059,
          26.525360025174713
        ]
      }
    },
    {
      "type": "Feature",
      "properties": {
        "norad_id": 31218,
        "name": "FENGYUN 1C DEB",
        "group": "fengyun-1c-debris",
        "lat": -75.64937926764672,
        "lon": 128.40730561129996,
        "alt_km": 667.3675800562332,
        "timestamp": "2025-12-07T05:38:10.185215+00:00",
        "meta_object_name": "FENGYUN 1C DEB",
        "meta_object_id": "1999-025BKY",
        "meta_epoch": "2025-12-06T13:40:45.100416",
        "meta_mean_motion": 14.71973247,
        "meta_eccentricity": 0.00115018,
        "meta_inclination": 98.841,
        "meta_ra_of_asc_node": 90.2132,
        "meta_arg_of_pericenter": 56.3658,
        "meta_mean_anomaly": 303.8643,
        "meta_ephemeris_type": 0,
        "meta_classification_type": "U",
        "meta_norad_cat_id": 31218,
        "meta_element_set_no": 999,
        "meta_rev_at_epoch": 96992,
        "meta_bstar": 0.0077461927,
        "meta_mean_motion_dot": 0.00048929,
        "meta_mean_motion_ddot": 0,
        "tle_line1": "1 31218U 99025BKY 25340.56996644  .00048929  00000+0  77462-2 0  9992",
        "tle_line2": "2 31218  98.8410  90.2132 0011501  56.3658 303.8643 14.71973247969922"
      },
      "geometry": {
        "type": "Point",
        "coordinates": [
          128.40730561129996,
          -75.64937926764672
        ]
      }
    },
    {
      "type": "Feature",
      "properties": {
        "norad_id": 31219,
        "name": "FENGYUN 1C DEB",
        "group": "fengyun-1c-debris",
        "lat": -39.24807675948356,
        "lon": 163.20842386380147,
        "alt_km": 802.2046165075217,
        "timestamp": "2025-12-07T05:38:10.185225+00:00",
        "meta_object_name": "FENGYUN 1C DEB",
        "meta_object_id": "1999-025BKZ",
        "meta_epoch": "2025-12-05T23:43:29.788608",
        "meta_mean_motion": 14.13732036,
        "meta_eccentricity": 0.00788597,
        "meta_inclination": 99.285,
        "meta_ra_of_asc_node": 349.5955,
        "meta_arg_of_pericenter": 196.1087,
        "meta_mean_anomaly": 163.7575,
        "meta_ephemeris_type": 0,
        "meta_classification_type": "U",
        "meta_norad_cat_id": 31219,
        "meta_element_set_no": 999,
        "meta_rev_at_epoch": 95474,
        "meta_bstar": 0.0022200731,
        "meta_mean_motion_dot": 4.278e-05,
        "meta_mean_motion_ddot": 0,
        "tle_line1": "1 31219U 99025BKZ 25339.98853922  .00004278  00000+0  22201-2 0  9998",
        "tle_line2": "2 31219  99.2850 349.5955 0078859 196.1087 163.7575 14.13732036954743"
      },
      "geometry": {
        "type": "Point",
        "coordinates": [
          163.20842386380147,
          -39.24807675948356
        ]
      }
    },
    {
      "type": "Feature",
      "properties": {
        "norad_id": 31222,
        "name": "FENGYUN 1C DEB",
        "group": "fengyun-1c-debris",
        "lat": -7.034609818986682,
        "lon": -130.4258416193011,
        "alt_km": 595.6626880994672,
        "timestamp": "2025-12-07T05:38:10.185235+00:00",
        "meta_object_name": "FENGYUN 1C DEB",
        "meta_object_id": "1999-025BLC",
        "meta_epoch": "2025-12-06T11:10:57.883872",
        "meta_mean_motion": 14.97631862,
        "meta_eccentricity": 0.01705422,
        "meta_inclination": 98.6126,
        "meta_ra_of_asc_node": 49.7982,
        "meta_arg_of_pericenter": 89.9861,
        "meta_mean_anomaly": 272.0901,
        "meta_ephemeris_type": 0,
        "meta_classification_type": "U",
        "meta_norad_cat_id": 31222,
        "meta_element_set_no": 999,
        "meta_rev_at_epoch": 99890,
        "meta_bstar": 0.0011414551,
        "meta_mean_motion_dot": 0.00017986,
        "meta_mean_motion_ddot": 0,
        "tle_line1": "1 31222U 99025BLC 25340.46594773  .00017986  00000+0  11415-2 0  9998",
        "tle_line2": "2 31222  98.6126  49.7982 0170542  89.9861 272.0901 14.97631862998906"
      },
      "geometry": {
        "type": "Point",
        "coordinates": [
          -130.4258416193011,
          -7.034609818986682
        ]
      }
    },
    {
      "type": "Feature",
      "properties": {
        "norad_id": 31223,
        "name": "FENGYUN 1C DEB",
        "group": "fengyun-1c-debris",
        "lat": 18.252088563666092,
        "lon": 50.82937952865596,
        "alt_km": 1019.2857939784317,
        "timestamp": "2025-12-07T05:38:10.185245+00:00",
        "meta_object_name": "FENGYUN 1C DEB",
        "meta_object_id": "1999-025BLD",
        "meta_epoch": "2025-12-06T09:41:58.163424",
        "meta_mean_motion": 13.77195687,
        "meta_eccentricity": 0.02416661,
        "meta_inclination": 99.0056,
        "meta_ra_of_asc_node": 227.0438,
        "meta_arg_of_pericenter": 57.528,
        "meta_mean_anomaly": 304.8987,
        "meta_ephemeris_type": 0,
        "meta_classification_type": "U",
        "meta_norad_cat_id": 31223,
        "meta_element_set_no": 999,
        "meta_rev_at_epoch": 92641,
        "meta_bstar": 0.0037590925,
        "meta_mean_motion_dot": 4.581e-05,
        "meta_mean_motion_ddot": 0,
        "tle_line1": "1 31223U 99025BLD 25340.40414541  .00004581  00000+0  37591-2 0  9997",
        "tle_line2": "2 31223  99.0056 227.0438 0241666  57.5280 304.8987 13.77195687926415"
      },
      "geometry": {
        "type": "Point",
        "coordinates": [
          50.82937952865596,
          18.252088563666092
        ]
      }
    },
    {
      "type": "Feature",
      "properties": {
        "norad_id": 31224,
        "name": "FENGYUN 1C DEB",
        "group": "fengyun-1c-debris",
        "lat": 63.649117302923884,
        "lon": -43.942535091956344,
        "alt_km": 834.134184249263,
        "timestamp": "2025-12-07T05:38:10.185255+00:00",
        "meta_object_name": "FENGYUN 1C DEB",
        "meta_object_id": "1999-025BLE",
        "meta_epoch": "2025-12-03T18:07:18.672672",
        "meta_mean_motion": 14.28870959,
        "meta_eccentricity": 0.01575493,
        "meta_inclination": 98.3692,
        "meta_ra_of_asc_node": 330.0057,
        "meta_arg_of_pericenter": 189.4604,
        "meta_mean_anomaly": 347.708,
        "meta_ephemeris_type": 0,
        "meta_classification_type": "U",
        "meta_norad_cat_id": 31224,
        "meta_element_set_no": 999,
        "meta_rev_at_epoch": 69122,
        "meta_bstar": 0.00043720692,
        "meta_mean_motion_dot": 1.217e-05,
        "meta_mean_motion_ddot": 0,
        "tle_line1": "1 31224U 99025BLE 25337.75507723  .00001217  00000+0  43721-3 0  9993",
        "tle_line2": "2 31224  98.3692 330.0057 0157549 189.4604 347.7080 14.28870959691224"
      },
      "geometry": {
        "type": "Point",
        "coordinates": [
          -43.942535091956344,
          63.649117302923884
        ]
      }
    },
    {
      "type": "Feature",
      "properties": {
        "norad_id": 31225,
        "name": "FENGYUN 1C DEB",
        "group": "fengyun-1c-debris",
        "lat": -10.272568392989971,
        "lon": 56.038160128781094,
        "alt_km": 776.1967310944501,
        "timestamp": "2025-12-07T05:38:10.185265+00:00",
        "meta_object_name": "FENGYUN 1C DEB",
        "meta_object_id": "1999-025BLF",
        "meta_epoch": "2025-12-06T04:25:03.039744",
        "meta_mean_motion": 14.17807702,
        "meta_eccentricity": 0.00882342,
        "meta_inclination": 98.9904,
        "meta_ra_of_asc_node": 53.3306,
        "meta_arg_of_pericenter": 10.355,
        "meta_mean_anomaly": 19.3598,
        "meta_ephemeris_type": 0,
        "meta_classification_type": "U",
        "meta_norad_cat_id": 31225,
        "meta_element_set_no": 999,
        "meta_rev_at_epoch": 95729,
        "meta_bstar": 0.0020572473,
        "meta_mean_motion_dot": 4.318e-05,
        "meta_mean_motion_ddot": 0,
        "tle_line1": "1 31225U 99025BLF 25340.18406296  .00004318  00000+0  20572-2 0  9991",
        "tle_line2": "2 31225  98.9904  53.3306 0088234  10.3550  19.3598 14.17807702957297"
      },
      "geometry": {
        "type": "Point",
        "coordinates": [
          56.038160128781094,
          -10.272568392989971
        ]
      }
    }
  ]
}